$$SOE
2459580.500000000, A.D. 2022-Jan-01 00:00:00.0000, 3.560048027122702E+09, 2.904669730021336E+09, -1.551707082730379E+08,
2459587.500000000, A.D. 2022-Jan-08 00:00:00.0000, 3.558146197899703E+09, 2.907519373800997E+09, -1.547866465334851E+08,
2459594.500000000, A.D. 2022-Jan-15 00:00:00.0000, 3.556242508460529E+09, 2.910367577897867E+09, -1.544025057694479E+08,
2459601.500000000, A.D. 2022-Jan-22 00:00:00.0000, 3.554336964034001E+09, 2.913214339686223E+09, -1.540182865650561E+08,
2459608.500000000, A.D. 2022-Jan-29 00:00:00.0000, 3.552429570428644E+09, 2.916059659018167E+09, -1.536339893972754E+08,
2459615.500000000, A.D. 2022-Feb-05 00:00:00.0000, 3.550520331825606E+09, 2.918903537551957E+09, -1.532496144881442E+08,
2459622.500000000, A.D. 2022-Feb-12 00:00:00.0000, 3.548609250744905E+09, 2.921745977012091E+09, -1.528651619420539E+08,
2459629.500000000, A.D. 2022-Feb-19 00:00:00.0000, 3.546696328860211E+09, 2.924586978750145E+09, -1.524806318530726E+08,
2459636.500000000, A.D. 2022-Feb-26 00:00:00.0000, 3.544781567350814E+09, 2.927426543883375E+09, -1.520960243213030E+08,
2459643.500000000, A.D. 2022-Mar-05 00:00:00.0000, 3.542864966950032E+09, 2.930264673394191E+09, -1.517113394435357E+08,
2459650.500000000, A.D. 2022-Mar-12 00:00:00.0000, 3.540946527911897E+09, 2.933101368124895E+09, -1.513265773042161E+08,
2459657.500000000, A.D. 2022-Mar-19 00:00:00.0000, 3.539026249967163E+09, 2.935936628695846E+09, -1.509417379712403E+08,
2459664.500000000, A.D. 2022-Mar-26 00:00:00.0000, 3.537104132291046E+09, 2.938770455341304E+09, -1.505568214994168E+08,
2459671.500000000, A.D. 2022-Apr-02 00:00:00.0000, 3.535180173550497E+09, 2.941602847607349E+09, -1.501718279526418E+08,
2459678.500000000, A.D. 2022-Apr-09 00:00:00.0000, 3.533254372303066E+09, 2.944433803916904E+09, -1.497867574695653E+08,
2459685.500000000, A.D. 2022-Apr-16 00:00:00.0000, 3.531326728104482E+09, 2.947263321656202E+09, -1.494016103522471E+08,
2459692.500000000, A.D. 2022-Apr-23 00:00:00.0000, 3.529397242056075E+09, 2.950091398867103E+09, -1.490163869729339E+08,
2459699.500000000, A.D. 2022-Apr-30 00:00:00.0000, 3.527465914921908E+09, 2.952918035300189E+09, -1.486310875109951E+08,
2459706.500000000, A.D. 2022-May-07 00:00:00.0000, 3.525532745878327E+09, 2.955743230855188E+09, -1.482457119622909E+08,
2459713.500000000, A.D. 2022-May-14 00:00:00.0000, 3.523597733285303E+09, 2.958566984446988E+09, -1.478602603001627E+08,
2459720.500000000, A.D. 2022-May-21 00:00:00.0000, 3.521660875448531E+09, 2.961389294056057E+09, -1.474747325397545E+08,
2459727.500000000, A.D. 2022-May-28 00:00:00.0000, 3.519722170893445E+09, 2.964210157004566E+09, -1.470891287400843E+08,
2459734.500000000, A.D. 2022-Jun-04 00:00:00.0000, 3.517781618428292E+09, 2.967029570145478E+09, -1.467034489948171E+08,
2459741.500000000, A.D. 2022-Jun-11 00:00:00.0000, 3.515839217140963E+09, 2.969847529966953E+09, -1.463176934247988E+08,
2459748.500000000, A.D. 2022-Jun-18 00:00:00.0000, 3.513894966368314E+09, 2.972664032625536E+09, -1.459318621747447E+08,
2459755.500000000, A.D. 2022-Jun-25 00:00:00.0000, 3.511948865667444E+09, 2.975479073875200E+09, -1.455459554194220E+08,
2459762.500000000, A.D. 2022-Jul-02 00:00:00.0000, 3.510000914923018E+09, 2.978292648826738E+09, -1.451599733968825E+08,
2459769.500000000, A.D. 2022-Jul-09 00:00:00.0000, 3.508051114980927E+09, 2.981104751714731E+09, -1.447739164899621E+08,
2459776.500000000, A.D. 2022-Jul-16 00:00:00.0000, 3.506099468753157E+09, 2.983915376755034E+09, -1.443877852623380E+08,
2459783.500000000, A.D. 2022-Jul-23 00:00:00.0000, 3.504145980595458E+09, 2.986724520170623E+09, -1.440015802409652E+08,
2459790.500000000, A.D. 2022-Jul-30 00:00:00.0000, 3.502190654041916E+09, 2.989532180031888E+09, -1.436153017264669E+08,
2459797.500000000, A.D. 2022-Aug-06 00:00:00.0000, 3.500233491495197E+09, 2.992338354559548E+09, -1.432289499083964E+08,
2459804.500000000, A.D. 2022-Aug-13 00:00:00.0000, 3.498274495049259E+09, 2.995143041644629E+09, -1.428425249845134E+08,
2459811.500000000, A.D. 2022-Aug-20 00:00:00.0000, 3.496313666875198E+09, 2.997946239082096E+09, -1.424560271810237E+08,
2459818.500000000, A.D. 2022-Aug-27 00:00:00.0000, 3.494351009238358E+09, 3.000747944791591E+09, -1.420694567391723E+08,
2459825.500000000, A.D. 2022-Sep-03 00:00:00.0000, 3.492386524394636E+09, 3.003548156914725E+09, -1.416828138997911E+08,
2459832.500000000, A.D. 2022-Sep-10 00:00:00.0000, 3.490420214456092E+09, 3.006346873812840E+09, -1.412960988919749E+08,
2459839.500000000, A.D. 2022-Sep-17 00:00:00.0000, 3.488452081255243E+09, 3.009144093963504E+09, -1.409093119286788E+08,
2459846.500000000, A.D. 2022-Sep-24 00:00:00.0000, 3.486482126268521E+09, 3.011939815704864E+09, -1.405224532189618E+08,
2459853.500000000, A.D. 2022-Oct-01 00:00:00.0000, 3.484510350838835E+09, 3.014734036805554E+09, -1.401355230208268E+08,
2459860.500000000, A.D. 2022-Oct-08 00:00:00.0000, 3.482536757104566E+09, 3.017526754382236E+09, -1.397485217295305E+08,
2459867.500000000, A.D. 2022-Oct-15 00:00:00.0000, 3.480561348703154E+09, 3.020317966363970E+09, -1.393614498181343E+08,
2459874.500000000, A.D. 2022-Oct-22 00:00:00.0000, 3.478584129067667E+09, 3.023107672819490E+09, -1.389743075680587E+08,
2459881.500000000, A.D. 2022-Oct-29 00:00:00.0000, 3.476605099814209E+09, 3.025895874553938E+09, -1.385870950309922E+08,
2459888.500000000, A.D. 2022-Nov-05 00:00:00.0000, 3.474624261319443E+09, 3.028682571716166E+09, -1.381998121909635E+08,
2459895.500000000, A.D. 2022-Nov-12 00:00:00.0000, 3.472641613523430E+09, 3.031467763683862E+09, -1.378124590430515E+08,
2459902.500000000, A.D. 2022-Nov-19 00:00:00.0000, 3.470657156238394E+09, 3.034251449272359E+09, -1.374250356009043E+08,
2459909.500000000, A.D. 2022-Nov-26 00:00:00.0000, 3.468670889225637E+09, 3.037033626869813E+09, -1.370375418897369E+08,
2459916.500000000, A.D. 2022-Dec-03 00:00:00.0000, 3.466682812206642E+09, 3.039814294487223E+09, -1.366499779410857E+08,
2459923.500000000, A.D. 2022-Dec-10 00:00:00.0000, 3.464692924853874E+09, 3.042593449741967E+09, -1.362623437920079E+08,
2459930.500000000, A.D. 2022-Dec-17 00:00:00.0000, 3.462701226786010E+09, 3.045371089749887E+09, -1.358746394930547E+08,
2459937.500000000, A.D. 2022-Dec-24 00:00:00.0000, 3.460707717676994E+09, 3.048147210860061E+09, -1.354868651404063E+08,
2459944.500000000, A.D. 2022-Dec-31 00:00:00.0000, 3.458712397836524E+09, 3.050921808339802E+09, -1.350990209561495E+08,
2459951.500000000, A.D. 2023-Jan-07 00:00:00.0000, 3.456715269384720E+09, 3.053694876972250E+09, -1.347111073492470E+08,
2459958.500000000, A.D. 2023-Jan-14 00:00:00.0000, 3.454716336053931E+09, 3.056466413063381E+09, -1.343231247361147E+08,
2459965.500000000, A.D. 2023-Jan-21 00:00:00.0000, 3.452715600972938E+09, 3.059236414685796E+09, -1.339350733208554E+08,
2459972.500000000, A.D. 2023-Jan-28 00:00:00.0000, 3.450713066101566E+09, 3.062004879963791E+09, -1.335469531875060E+08,
2459979.500000000, A.D. 2023-Feb-04 00:00:00.0000, 3.448708733107138E+09, 3.064771806427457E+09, -1.331587644376523E+08,
2459986.500000000, A.D. 2023-Feb-11 00:00:00.0000, 3.446702603887568E+09, 3.067537191242278E+09, -1.327705072244687E+08,
2459993.500000000, A.D. 2023-Feb-18 00:00:00.0000, 3.444694680677918E+09, 3.070301031491181E+09, -1.323821817445354E+08,
2460000.500000000, A.D. 2023-Feb-25 00:00:00.0000, 3.442684966003290E+09, 3.073063324347430E+09, -1.319937882246259E+08,
2460007.500000000, A.D. 2023-Mar-04 00:00:00.0000, 3.440673462580455E+09, 3.075824067157384E+09, -1.316053269111303E+08,
2460014.500000000, A.D. 2023-Mar-11 00:00:00.0000, 3.438660173196984E+09, 3.078583257433884E+09, -1.312167980645318E+08,
2460021.500000000, A.D. 2023-Mar-18 00:00:00.0000, 3.436645100615174E+09, 3.081340892711020E+09, -1.308282019670714E+08,
2460028.500000000, A.D. 2023-Mar-25 00:00:00.0000, 3.434628247704252E+09, 3.084096970213313E+09, -1.304395389658998E+08,
2460035.500000000, A.D. 2023-Apr-01 00:00:00.0000, 3.432609618225585E+09, 3.086851486732961E+09, -1.300508095582832E+08,
2460042.500000000, A.D. 2023-Apr-08 00:00:00.0000, 3.430589217655643E+09, 3.089604439940291E+09, -1.296620143621078E+08,
2460049.500000000, A.D. 2023-Apr-15 00:00:00.0000, 3.428567051709847E+09, 3.092355830021444E+09, -1.292731538475409E+08,
2460056.500000000, A.D. 2023-Apr-22 00:00:00.0000, 3.426543124376549E+09, 3.095105658591453E+09, -1.288842282451034E+08,
2460063.500000000, A.D. 2023-Apr-29 00:00:00.0000, 3.424517438196276E+09, 3.097853927135654E+09, -1.284952376968572E+08,
2460070.500000000, A.D. 2023-May-06 00:00:00.0000, 3.422489995026053E+09, 3.100600636760696E+09, -1.281061823437347E+08,
2460077.500000000, A.D. 2023-May-13 00:00:00.0000, 3.420460796312057E+09, 3.103345788361687E+09, -1.277170623325341E+08,
2460084.500000000, A.D. 2023-May-20 00:00:00.0000, 3.418429843104769E+09, 3.106089382714497E+09, -1.273278778043764E+08,
2460091.500000000, A.D. 2023-May-27 00:00:00.0000, 3.416397136010141E+09, 3.108831420463844E+09, -1.269386288849933E+08,
2460098.500000000, A.D. 2023-Jun-03 00:00:00.0000, 3.414362675134385E+09, 3.111571902033256E+09, -1.265493156802909E+08,
2460105.500000000, A.D. 2023-Jun-10 00:00:00.0000, 3.412326460046135E+09, 3.114310827443160E+09, -1.261599382807640E+08,
2460112.500000000, A.D. 2023-Jun-17 00:00:00.0000, 3.410288489845062E+09, 3.117048195977092E+09, -1.257704967881190E+08,
2460119.500000000, A.D. 2023-Jun-24 00:00:00.0000, 3.408248763656908E+09, 3.119784005751702E+09, -1.253809913891729E+08,
2460126.500000000, A.D. 2023-Jul-01 00:00:00.0000, 3.406207281808086E+09, 3.122518254018663E+09, -1.249914224327724E+08,
2460133.500000000, A.D. 2023-Jul-08 00:00:00.0000, 3.404164046005859E+09, 3.125250939020658E+09, -1.246017902891990E+08,
2460140.500000000, A.D. 2023-Jul-15 00:00:00.0000, 3.402119057247353E+09, 3.127982060571651E+09, -1.242120951063117E+08,
2460147.500000000, A.D. 2023-Jul-22 00:00:00.0000, 3.400072314978763E+09, 3.130711618327119E+09, -1.238223368700659E+08,
$$EOE